LANDSAT 9               
1 49260U 21088A   23231.47579088  .00000527  00000+0  12711-3 0  9997
2 49260  98.2262 300.5994 0001436 102.0179 258.1180 14.57092160100603
